<?xml version="1.0" encoding="UTF-8"?>
<kml xmlns="http://www.opengis.net/kml/2.2" xmlns:gx="http://www.google.com/kml/ext/2.2">
    <Document id="1">
        <Style id="4">
            <LineStyle id="5">
                <color>ffffffff</color>
                <colorMode>normal</colorMode>
                <width>4</width>
            </LineStyle>
        </Style>
        <Placemark id="3">
            <name>Satellite_trajectory</name>
            <description>Time: 0.0 - 2770.0 s</description>
            <styleUrl>#4</styleUrl>
            <LineString id="2">
                <extrude>1</extrude>
                <altitudeMode>absolute</altitudeMode>
                <coordinates>141.5,42.5,150000 142.3855031315528,42.49625603744865,149996 143.2707809039949,42.48502608070047,149986 144.1556144442919,42.46631576987623,149970 145.03978576271405,42.44013439186272,149946 145.92307818419735,42.40649485881854,149916 146.80527677352057,42.36541367836795,149879 147.68616875233883,42.316910915647895,149836 148.56554390618442,42.26101014741502,149786 149.44319497963295,42.197738408463195,149729 150.31891805793467,42.12712613063952,149666 151.1925129335243,42.04920707478472,149595 152.06378345595073,41.96401825595651,149519 152.93253786390272,41.871599862325,149435 153.79858909815272,41.77199516815531,149345 154.6617550943905,41.66525044131649,149248 155.52185905507494,41.5514148457733,149145 156.37872969959025,41.43054033953494,149035 157.23220149215138,41.30268156854291,148918 158.0821148470698,41.16789575698968,148795 158.92831631116817,41.026242594556976,148665 159.77065872325718,40.87778412106578,148529 160.60900135071523,40.72258460903044,148386 161.44321000336873,40.56071044459972,148237 162.2731571250007,40.39223000735726,148081 163.09872186293967,40.217213549441865,147919 163.91979011628368,40.03573307443289,147751 164.73625456337075,39.84786221644179,147576 165.54801466923732,39.653676119823885,147395 166.35497667394628,39.45325131988938,147208 167.15705356269848,39.24666562497649,147014 167.95416501869437,39.03399800022612,146815 168.7462373597694,38.81532845337058,146609 169.53320345987802,38.590737922817134,146397 170.31500265648933,38.36030816829195,146179 171.09158064497427,38.124121664284914,145954 171.86288936108807,37.882261496504874,145724 172.62888685270772,37.63481126151122,145488 173.38953714196984,37.38185496965852,145247 174.14481007881602,37.12347695150733,144999 174.89468118696632,36.859761767820906,144745 175.6391315032148,36.590794123285384,144486 176.37814741081564,36.316658784113535,144222 177.11172046808917,36.037440499533936,143951 177.83984723329712,35.753223927149406,143675 178.56252908691778,35.46409356206907,143394 179.27977205239213,35.17013366968613,143107 179.99158661578974,34.87142822218693,142815 -179.30201245954638,34.5680608324499,142517 -178.60100631000702,34.26011470384702,142214 -177.90537214744296,33.94767258568659,141907 -177.21508344341228,33.630816718239586,141593 -176.5301101065905,33.309628787884726,141275 -175.85041865713345,32.98418988536646,140952 -175.17597239728485,32.654580466884376,140624 -174.50673158145236,32.32088031968108,140291 -173.84265358222234,31.98316853055134,139954 -173.18369305212667,31.64152345687823,139611 -172.5298020812031,31.296022700277,139264 -171.8809303502911,30.94674308425561,138913 -171.23702527969579,30.593760633966046,138557 -170.5980321733993,30.237150558487176,138196 -169.96389435885513,29.876987235758705,137831 -169.33455332199728,29.513344199909522,137462 -168.70994883704864,29.14629413066093,137088 -168.09001909105686,28.77590884465132,136711 -167.4747008035308,28.40225928878895,136329 -166.86392934158616,28.025415535780827,135943 -166.25763883044405,27.64544678164888,135554 -165.6557622589429,27.262421344903878,135160 -165.0582315799777,26.87640666717906,134763 -164.46497780609613,26.48746931531658,134362 -163.87593110039538,26.0956749848514,133957 -163.29102086281605,25.701088504805526,133548 -162.71017581205987,25.303773843793703,133136 -162.13332406338165,24.903794117464937,132721 -161.56039320216314,24.50121159707217,132302 -160.9913103532321,24.096087718985682,131880 -160.42600224607017,23.688483095086713,131455 -159.86439527613877,23.27845752404343,131026 -159.30641556248491,22.86607000343026,130594 -158.75198900180152,22.451378742665618,130160 -158.20104131926234,22.034441176859065,129722 -157.65349811604761,21.615313981364256,129281 -157.10928491339405,21.19405308675727,128837 -156.56832719251733,20.770713693563437,128391 -156.03055042255338,20.345350280295246,127941 -155.49588009918304,19.91801662232429,127489 -154.96424178482235,19.488765814828678,127035 -154.43556113896233,19.057650290573577,126577 -153.90976394573255,18.62472183782116,126117 -153.38677613899912,18.190031618479253,125655 -152.8665238259114,17.753630187122177,125190 -152.34893331143036,17.3155675129378,124722 -151.83393112106808,16.87589300226522,124253 -151.32144401200094,16.434655513141873,123780 -150.8113989774205,15.991903365495718,123306 -150.30372327368048,15.54768437248694,122829 -149.79834447030672,15.102045894082014,122350 -149.29519047766544,14.655034873712957,121868 -148.79418954220483,14.206697847911391,121385 -148.2952702472973,13.757080961635452,120899 -147.79836153227052,13.306230000896479,120410 -147.30339271135688,12.854190426760752,119920 -146.81029348834286,12.401007409866809,119427 -146.31899397202164,11.946725869020758,118932 -145.8294246850859,11.4913904938748,118435 -145.34151657770963,11.035045777427705,117935 -144.85520104310646,10.577736052321061,117433 -144.37040993620647,10.11950553086369,116929 -143.88707559761923,9.660398350819575,116422 -143.40513083385608,9.200458580397262,115912 -142.92450889787722,8.739730223087312,115400 -142.44514357868533,8.278257326560674,114885 -141.96696924250475,7.8160840469919615,114367 -141.48992087404093,7.353254714010028,113846 -141.01393412654434,6.88981390448687,113322 -140.5389453746055,6.425806519202203,112795 -140.06489176908022,5.961277861560495,112264 -139.59171130516415,5.496273728877927,111729 -139.11934290826164,5.030840520707542,111190 -138.6477265347215,4.5650253612343725,110647 -138.17680328776294,4.09887623581859,110099 -137.7065155493794,3.6324421421412305,109546 -137.23680713073415,3.1657732580328664,108988 -136.76762344839216,2.698921132788842,108424 -136.2989117409916,2.231938915942049,107853 -135.83062135078185,1.7648816471895885,107275 -135.3627038027855,1.2978063411433531,106690 -134.89511261311083,0.8307717967154137,106097 -134.4278042164591,0.36383951320250896,105494 -133.96073859074284,-0.10292570023595031,104881 -133.49387980764627,-0.5694551979464771,104257 -133.02719669473154,-1.0356758719380565,103620 -132.56066367980134,-1.5015093592609778,102971 -132.094261800698,-1.966871103032092,102306 -131.62797990707546,-2.4316692453447564,101624 -131.16181611177223,-2.8958033005654236,100924 -130.69577951431899,-3.35916259385795,100204 -130.22989220326204,-3.821624470218983,99460 -129.76419146254565,-4.283052383117006,98691 -129.298732856956,-4.743293154306231,97893 -128.83359429050807,-5.202173349926185,97063 -128.36888166291928,-5.65949431328563,96197 -127.90473529730518,-6.115026543183481,95290 -127.44133702101159,-6.568503466866862,94336 -126.97892082781655,-7.019612043522321,93331 -126.51778599023535,-7.467981302731509,92266 -126.05831350784518,-7.913168031145692,91134 -125.60099068359521,-8.354635074637528,89925 -125.14644454855382,-8.79172196254807,88629 -124.69548595667071,-9.223606275999682,87234 -124.24916885547077,-9.64925180495347,85724 -123.80887237937168,-10.067336746299267,84085 -123.37641015172662,-10.476158371290383,82298 -122.95417514646144,-10.873507011040696,80343 -122.5453265767795,-11.256504467006618,78200 -122.1540241254618,-11.621402961487538,75851 -121.7856422286757,-11.963405006887175,73283 -121.44683057578972,-12.276625037317002,70497 -121.1450307228932,-12.554542976268568,67516 -120.88699829665575,-12.791345034062601,64391 -120.67660161839228,-12.98388817677731,61196 -120.51311235966855,-13.13319431483869,58008 -120.39136090389268,-13.24432859154568,54887 -120.30367938330596,-13.324570185399166,51861 -120.24214805290606,-13.381309624234778,48935 -120.20002472513644,-13.420781544658343,46106 -120.1721557430333,-13.447728328789777,43381 -120.1547791295247,-13.465604560030853,40786 -120.14510167263002,-13.47695434123404,38364 -120.1407600747861,-13.48374796921464,36156 -120.13981457771222,-13.487517707514174,34194 -120.14081002501376,-13.48942996072917,32483 -120.14274613170063,-13.49030846598598,30998 -120.14502904208227,-13.490666522621508,29698 -120.14737511986725,-13.49077896398659,28544 -120.14966135407768,-13.490781113203463,27505 -120.15184227602896,-13.490734573849483,26558 -120.15391493051688,-13.4906652286539,25687 -120.15591779488064,-13.490583430640944,24880 -120.15787541680986,-13.490493211607317,24127 -120.1597860432469,-13.490399527301397,23421 -120.16153818227599,-13.49033752087507,22755 -120.16305468627797,-13.490331252305682,22126 -120.16432772750572,-13.490383878538186,21529 -120.16536605976528,-13.49049350279753,20961 -120.16618029314662,-13.49065606732926,20418 -120.16677311918446,-13.490852845429732,19899 -120.16715088090895,-13.491068501662289,19401 -120.16732488522194,-13.491296282549905,18922 -120.16730215748736,-13.491530669295077,18461 -120.16706728137605,-13.491721466230263,18016 -120.1666130264188,-13.491837719274125,17587 -120.16594519380769,-13.491877821471057,17171 -120.1650707951373,-13.491843897620045,16768 -120.16401593233317,-13.491735134549915,16378 -120.16289379540771,-13.491536268566104,16000 -120.16174422855119,-13.491243845384181,15632 -120.16057115716248,-13.490860117651398,15275 -120.15937550811351,-13.490387671367566,14927 -120.15815796018215,-13.489828990037271,14589 -120.15691915100544,-13.48918643317931,14260 -120.15567639224005,-13.488479696824076,13940 -120.15446240174415,-13.487744508544466,13627 -120.15328076915537,-13.486986084754118,13322 -120.15213090540163,-13.486205201037949,13025 -120.15101206456963,-13.485402400599682,12734 -120.14992352785079,-13.484578191388373,12450 -120.14886967096558,-13.483751773127068,12172 -120.14785910660697,-13.482957910919518,11901 -120.14689185914294,-13.482199503258572,11635 -120.14596702790097,-13.481475893402019,11375 -120.14508372909835,-13.480786358427459,11119 -120.14424085614729,-13.480131538083018,10869 -120.14343335046264,-13.479532148568861,10624 -120.1426582609625,-13.47899840294032,10383 -120.14191487314184,-13.478529463606263,10146 -120.14120257784452,-13.47812418710283,9914 -120.1405208159611,-13.477781417270725,9685 -120.13987713925599,-13.477470985188942,9460 -120.13928195246386,-13.477152651660392,9239 -120.13873511942232,-13.476824246864865,9021 -120.13823589919924,-13.476485896182348,8806 -120.13778357533401,-13.476137747895073,8595 -120.13737746179696,-13.475779944669464,8386 -120.13701690147082,-13.47541262352822,8181 -120.13670126466104,-13.475035916138596,7978 -120.13642994767432,-13.474649949091411,7777 -120.13620237008718,-13.47425484605944,7579 -120.13600645632916,-13.473866850874373,7384 -120.13582418975167,-13.473510544459831,7191 -120.1356544987267,-13.473186806875143,7000 -120.13549722266035,-13.472895265081952,6812 -120.13535221257901,-13.472635550451132,6626 -120.1352193248497,-13.47240730634567,6441 -120.13509842086658,-13.472210187525436,6259 -120.1349893667969,-13.472043859552372,6079 -120.13489203334467,-13.471907998236974,5900 -120.13481209643267,-13.471803953939002,5724 -120.13476879365463,-13.471736975856016,5549 -120.13476414399139,-13.471707377218381,5376 -120.13479777729471,-13.471714793206337,5204 -120.13486932249143,-13.471758866280712,5034 -120.13497841743472,-13.4718392486122,4866 -120.13512470844414,-13.47195560157674,4699 -120.13530784980554,-13.472107595240058,4534 -120.135526812444,-13.472294492500367,4370 -120.1357398113228,-13.472491054523545,4208 -120.1359149163238,-13.472677968036347,4047 -120.13605195371562,-13.47285501647415,3887 -120.13615125384447,-13.473022288597262,3729 -120.13621314038818,-13.473179871152437,3572 -120.13623792944381,-13.473327848231715,3416 -120.13622592982215,-13.473466301366809,3262 -120.13617840658594,-13.473595206434954,3109 -120.13615510496436,-13.47370827207451,2957 -120.13620117553988,-13.473800763479902,2806 -120.13631667610002,-13.473872770708955,2657 -120.1365010646252,-13.473924446826963,2508 -120.13675380544827,-13.473955943340975,2361 -120.13707436932091,-13.473967410352005,2215 -120.13746223262203,-13.473958996776858,2070 -120.137916876668,-13.473930850539995,1926 -120.13843778712149,-13.473883118736273,1783 -120.13902445363273,-13.473815947725106,1642 -120.13967614848579,-13.473729581412318,1501 -120.14037038996464,-13.47363392631334,1361 -120.14108819237647,-13.473537344802441,1223 -120.1418291441956,-13.473439955262757,1085 -120.14259307384259,-13.473341770665787,949 -120.14337981184438,-13.473242804110834,814 -120.14417549832189,-13.473137929332536,679 -120.14495521712159,-13.473017866636605,546 -120.14571809257635,-13.472882357930045,413 -120.14646425540889,-13.47273152208905,282 -120.14719383550019,-13.472565476828969,152 -120.14741631624084,-13.472511146000134,23</coordinates>
            </LineString>
        </Placemark>
    </Document>
</kml>
