<?xml version="1.0" encoding="UTF-8"?>
<kml xmlns="http://www.opengis.net/kml/2.2" xmlns:gx="http://www.google.com/kml/ext/2.2">
    <Document id="1">
        <Style id="4">
            <LineStyle id="5">
                <color>ffffffff</color>
                <colorMode>normal</colorMode>
                <width>4</width>
            </LineStyle>
        </Style>
        <Placemark id="3">
            <name>Satellite_trajectory</name>
            <description>Time: 0.0 - 2770.0 s</description>
            <styleUrl>#4</styleUrl>
            <LineString id="2">
                <extrude>1</extrude>
                <altitudeMode>absolute</altitudeMode>
                <coordinates>141.5,42.5,150000 142.38550315336147,42.496256017612154,149996 143.27078099082132,42.48502600074839,149986 144.1556146386764,42.46631558861084,149970 145.03978610645459,42.44013406715681,149946 145.9230787182788,42.4064943476069,149916 146.80527753804714,42.36541293664135,149879 147.68616978646958,42.31690989844917,149836 148.56554524807268,42.261008808837424,149786 149.44319666636935,42.19773670165084,149729 150.31892012549423,42.127124007789824,149666 151.19251541671807,42.04920448715258,149595 152.06378638838146,41.96401515386047,149519 152.93254127792562,41.8715961951546,149435 153.79859302484041,41.77199088438024,149345 154.6617595635033,41.66524548849663,149248 155.52186409503574,41.551409170570444,149145 156.3787353374644,41.43053388772436,149035 157.2322077536316,41.3026742850265,148918 158.0821217564661,41.16788758580911,148795 158.92832389140244,41.0262334789074,148665 159.7706669958617,40.87777400331018,148529 160.6090103358355,40.722573430714505,148386 161.44321971976984,40.5606981464672,148237 162.27316759007735,40.392216529365996,148082 163.09873309272882,40.21719883078004,147920 163.91980212548052,40.035717053536324,147751 164.73626736534743,39.84784483101073,147577 165.54802827606557,39.65365730683939,147396 166.35499109642294,39.453231015628845,147208 167.15706881037488,39.246643765027756,147015 167.95418109990842,39.03397451950045,146815 168.7462542816807,38.81530328611372,146609 169.53322122850545,38.59071100261892,146397 170.31502127675068,38.36027942809441,146179 171.0916001207277,38.12409103638851,145955 171.86290969517523,37.88222891257283,145725 172.62890804699745,37.634776652572526,145489 173.38955919740084,37.381818266110876,145248 174.14483299543846,37.1234380831201,145000 174.89470496398172,36.85972066373862,144747 175.63915613901668,36.59075071203005,144488 176.37817290303394,36.31661299358226,144223 177.11174681363977,36.037392256989676,143953 177.83987442843488,35.75317315920486,143677 178.56255712728924,35.46404019466628,143396 179.27980093308258,35.17007762807747,143109 179.9916163313645,34.871369430918854,142817 -179.3019819105546,34.56799922173682,142519 -178.60097492478732,34.26005021033347,142217 -177.90533992364456,33.94760514579873,141909 -177.21505037910575,33.630746268190066,141596 -176.53007620022913,33.309555263674405,141278 -175.850383907533,32.98411322279507,140955 -175.1759368036103,32.65450060157037,140627 -174.5066951431782,32.32079718706154,140295 -173.8426162990968,31.983082065878595,139957 -173.18365492419372,31.641433595551817,139615 -172.529763108928,31.295929378785306,139268 -171.88089053455536,30.946646240409354,138917 -171.2369846217683,30.59366020698935,138561 -170.5979906749047,30.237046489109712,138201 -169.96385202173767,29.87687946630616,137836 -169.3345101484831,29.513232674394416,137467 -168.70990482961537,29.146178794880328,137094 -168.08997425241014,28.77578964629296,136717 -167.47465513658128,28.40213617754258,136335 -166.86388284941833,28.02528846344742,135950 -166.25759151628074,27.645315702249647,135560 -165.6557141261111,27.262286214793598,135167 -165.0581826318778,26.876267445165606,134770 -164.46492804617344,26.48732596278766,134369 -163.87588053211334,26.095527465908194,133965 -163.29096948963132,25.700936786404288,133557 -162.7101236373935,25.30361789589109,133146 -162.13327109058415,24.9036339131666,132731 -161.56033943447872,24.501047112787774,132312 -160.99125579376408,24.09591893459372,131890 -160.4259468977472,23.688309994109435,131466 -159.86433914167944,23.278280093831512,131037 -159.3063586443607,22.865888235357883,130606 -158.75193130219282,22.451192632333548,130172 -158.20098284000403,22.03425072430361,129735 -157.65343885857314,21.615119191281085,129294 -157.109224878686,21.193853968747362,128851 -156.56826638117911,20.770510262493158,128405 -156.03048883516425,20.345142556894263,127956 -155.495817735878,19.91780463319883,127505 -154.96417864516408,19.48854959272895,127051 -154.43549722185858,19.057429874725358,126594 -153.90969924935698,18.62449727429112,126135 -153.38671066071274,18.189802960575136,125673 -152.86645756210774,17.753397495768475,125209 -152.34886625722442,17.315330856969727,124742 -151.8338632701316,16.87565245890335,124273 -151.32137535695597,16.43441116898084,123802 -150.81132951001348,15.991655317330947,123328 -150.30365298328365,15.54743272679387,122852 -149.7982733419449,15.101790766276766,122373 -149.2951184917171,14.654776389043795,121893 -148.79411667491436,14.20643614313702,121410 -148.29519647033322,13.75681618595507,120925 -147.7982868116587,13.30596231650882,120437 -147.30331700665107,12.853920009842726,119948 -146.81021674951972,12.400734446566688,119456 -146.3189161320776,11.946450542326854,118962 -145.829345657024,11.491112980210318,118465 -145.341436252137,11.034766244935762,117967 -144.8551192855093,10.57745465889102,117466 -144.3703265836064,10.11922242163311,116962 -143.88699045492208,9.660113655467025,116456 -143.40504367594056,9.200172415740955,115948 -142.92441946270066,8.739442687000135,115437 -142.44505155981454,8.27796849174596,114923 -141.9668742830052,7.81579395618831,114406 -141.4898225591745,7.352963374180418,113887 -141.01383197539556,6.889521280134695,113364 -140.5388388310061,6.425512525168161,112837 -140.0647801914385,5.96098235491237,112308 -139.59159395398726,5.495976498750153,111774 -139.11921893152964,5.030541276300926,111237 -138.64759495082743,4.564723717732455,110695 -138.1766629660126,4.098571698250846,110148 -137.7063651875925,3.6321340867767216,109597 -137.2366452294547,3.165460910860544,109040 -136.76744828067396,2.6986035441282454,108478 -136.29872131492746,2.231614928490875,107909 -135.8304133639111,1.7645498568590978,107333 -135.362475651341,1.297465112571165,106749 -134.89486133816604,0.830419214647012,106157 -134.4275263893833,0.3634732767576715,105556 -133.96043023253898,-0.10330834749618689,104945 -133.49353629714807,-0.5698575475153269,104324 -133.02681265421282,-1.0361018505517692,103690 -132.5602328346784,-1.501963652551206,103042 -132.0937768126666,-1.9673593028663,102380 -131.62743217316006,-2.4321980278908613,101701 -131.16119552218305,-2.8963806415486952,101004 -130.69507416421916,-3.3597980252877644,100287 -130.22908807314988,-3.8223293602577058,99547 -129.7632722279819,-4.283840051507596,98782 -129.29767956760327,-4.744179105844303,97989 -128.83238483030158,-5.203175719955069,97164 -128.367490028266,-5.66063436741085,96303 -127.9031310135415,-6.116328961281766,95401 -127.43948419334028,-6.569997053664111,94455 -126.97677682295999,-7.021330756818911,93457 -126.51529992461658,-7.469965410028245,92401 -126.05542418792149,-7.9154657394809105,91278 -125.5976235723843,-8.357305069681816,90081 -125.14250773800862,-8.794836740900129,88797 -124.69086503155931,-9.227256365745008,87415 -124.24371963722167,-9.653551833328034,85922 -123.80241144739988,-10.072433397468593,84300 -123.36870244918168,-10.48224093751749,82532 -122.9449176798306,-10.8808215452863,80599 -122.53412767827157,-11.265371749337104,78481 -122.14036306857334,-11.632253725785278,76157 -121.7688344810574,-11.976810004270268,73615 -121.42602870334898,-12.293293536533158,70853 -121.11931512979193,-12.575242092693568,67891 -120.85559468422137,-12.816709036851531,64777 -120.63913756278556,-13.014197803553401,61583 -120.46974744258968,-13.168265426285162,58386 -120.34262988448374,-13.283575392314646,55250 -120.25020933076001,-13.367215940642478,52207 -120.18444619889732,-13.4266060829998,49261 -120.13839179257054,-13.468113220256802,46412 -120.10669242497252,-13.49662287252292,43663 -120.0854330462095,-13.515698314627034,41040 -120.07174100300517,-13.52794915786525,38586 -120.06341360831533,-13.535372772171257,36348 -120.05869837932242,-13.539554745742349,34363 -120.05623053034194,-13.541726504415427,32632 -120.05503584737508,-13.542764313060083,31130 -120.05449688334654,-13.543221560572274,29816 -120.05426699875925,-13.543407623524281,28650 -120.05417153819059,-13.543477550886633,27601 -120.05413052925927,-13.543501796776294,26646 -120.05411043426233,-13.543509539458748,25768 -120.05409828399817,-13.543511806158332,24956 -120.05408938306188,-13.54351240496299,24198 -120.05408208239758,-13.543512538633175,23487 -120.0540757774647,-13.543512554641586,22819 -120.05407020665552,-13.543512544765376,22186 -120.05406522470857,-13.543512531036113,21586 -120.05406073299078,-13.543512518128892,21015 -120.05405665675326,-13.543512506795569,20470 -120.05405293647698,-13.543512497001526,19949 -120.05404952371076,-13.543512488589954,19448 -120.05404637892481,-13.543512481407085,18968 -120.05404346998733,-13.543512475319858,18505 -120.05404077006204,-13.54351247021382,18058 -120.05403825591252,-13.543512465989627,17627 -120.05403590756659,-13.543512462561214,17210 -120.05403370845573,-13.543512459854124,16806 -120.05403164479026,-13.543512457803125,16415 -120.05402970473635,-13.543512456350523,16035 -120.05402787789019,-13.543512455444597,15667 -120.05402615501168,-13.543512455038943,15308 -120.05402452785819,-13.543512455091758,14960 -120.05402298902939,-13.543512455565251,14621 -120.05402153181562,-13.543512456425198,14292 -120.0540201500814,-13.543512457640587,13970 -120.05401883821246,-13.543512459183367,13657 -120.0540175910931,-13.543512461027946,13351 -120.05401640408226,-13.543512463151192,13053 -120.05401527296125,-13.543512465531956,12762 -120.05401419386108,-13.543512468151032,12478 -120.05401316317953,-13.543512470990983,12200 -120.05401217756197,-13.543512474035968,11927 -120.05401123390016,-13.543512477271696,11661 -120.05401032933098,-13.543512480685141,11400 -120.05400946122715,-13.543512484264445,11145 -120.05400862717957,-13.543512487998875,10894 -120.05400782497307,-13.543512491878557,10648 -120.05400705254264,-13.543512495894666,10407 -120.05400630795143,-13.543512500039153,10170 -120.05400558939047,-13.543512504304879,9937 -120.05400489517919,-13.543512508685312,9708 -120.05400422377768,-13.543512513174564,9483 -120.0540035737889,-13.54351251776714,9261 -120.05400294394273,-13.543512522457965,9043 -120.05400233308093,-13.543512527242363,8828 -120.0540017401399,-13.543512532115987,8616 -120.05400116413207,-13.543512537074806,8408 -120.05400060413781,-13.543512542115174,8202 -120.05400005930012,-13.543512547233723,7998 -120.05399952882073,-13.543512552427298,7798 -120.05399901195962,-13.543512557693022,7600 -120.05399850803595,-13.543512563028145,7404 -120.0539980164223,-13.5435125684301,7211 -120.05399753653928,-13.54351257389643,7020 -120.05399706785043,-13.543512579424863,6832 -120.0539966098567,-13.543512585013133,6645 -120.05399616209144,-13.54351259065921,6461 -120.05399572411736,-13.543512596361131,6278 -120.05399529552402,-13.543512602117056,6098 -120.05399487592565,-13.543512607925209,5919 -120.05399446495993,-13.543512613783978,5742 -120.0539940622875,-13.543512619691725,5567 -120.0539936675912,-13.543512625646944,5394 -120.05399328057378,-13.543512631648179,5222 -120.05399290095652,-13.543512637693967,5052 -120.05399252847712,-13.543512643782972,4884 -120.05399216288926,-13.543512649913852,4717 -120.05399180396208,-13.543512656085294,4551 -120.05399145147916,-13.543512662296054,4387 -120.05399110523737,-13.543512668544894,4225 -120.0539907650454,-13.543512674830566,4064 -120.05399043072283,-13.543512681151867,3904 -120.05399010209898,-13.543512687507668,3745 -120.05398977901164,-13.54351269389681,3588 -120.05398946130616,-13.543512700318198,3433 -120.05398914883496,-13.543512706770773,3278 -120.05398884145701,-13.54351271325346,3125 -120.05398853903743,-13.543512719765284,2973 -120.05398824144736,-13.543512726305211,2822 -120.05398794856693,-13.543512732872287,2672 -120.05398766028709,-13.543512739465411,2524 -120.0539873765089,-13.543512746083518,2376 -120.05398709714177,-13.543512752725457,2230 -120.05398682210274,-13.543512759390095,2085 -120.0539865513152,-13.54351276607623,1941 -120.0539862847076,-13.543512772782707,1798 -120.0539860222105,-13.543512779508294,1656 -120.05398576375487,-13.543512786251895,1516 -120.05398550927227,-13.543512793012383,1376 -120.05398525869468,-13.54351279978871,1237 -120.05398501195471,-13.543512806579809,1100 -120.05398476898547,-13.543512813384726,963 -120.05398452972076,-13.543512820202517,828 -120.05398429409499,-13.54351282703221,693 -120.05398406204327,-13.543512833872935,560 -120.05398383350142,-13.543512840723851,427 -120.05398360840597,-13.543512847584063,296 -120.05398338669424,-13.543512854452842,165 -120.05398316830441,-13.543512861329404,36</coordinates>
            </LineString>
        </Placemark>
    </Document>
</kml>
