<?xml version="1.0" encoding="UTF-8"?>
<kml xmlns="http://www.opengis.net/kml/2.2" xmlns:gx="http://www.google.com/kml/ext/2.2">
    <Document id="1">
        <Style id="4">
            <LineStyle id="5">
                <color>ffffffff</color>
                <colorMode>normal</colorMode>
                <width>4</width>
            </LineStyle>
        </Style>
        <Placemark id="3">
            <name>Satellite_trajectory</name>
            <description>Time: 0.0 - 5000.0 s</description>
            <styleUrl>#4</styleUrl>
            <LineString id="2">
                <extrude>1</extrude>
                <altitudeMode>absolute</altitudeMode>
                <coordinates>-156.79,51.47,201580 -155.7334630473397,51.442014002906404,201615 -154.67853053548933,51.40376808521855,201670 -153.62569347448473,51.355293982547906,201744 -152.5754360684253,51.296631765198384,201836 -151.52823420643006,51.22782968087174,201948 -150.484554018728,51.148943967088165,202079 -149.44485050816655,51.06003863501782,202228 -148.40956626635588,50.961185226648794,202397 -147.37913028249108,50.852462547412564,202584 -146.35395685162993,50.733956376553955,202790 -145.33444458789944,50.60575915766329,203015 -144.32097554676758,50.467969671884404,203259 -143.3139144591649,50.320692696370685,203522 -142.31360807891264,50.16403865058585,203804 -141.3203846436886,49.99812323304368,204104 -140.3345534485641,49.82306705104683,204424 -139.35640453006195,49.638995245927006,204762 -138.38620845765678,49.44603711620004,205118 -137.42421622864725,49.244325740923344,205494 -136.470659261495,49.03399760539746,205888 -135.52574948208127,48.815192231206765,206300 -134.5896794969351,48.588051812466134,206731 -133.66262284711647,48.35272085999723,207181 -132.74473433591587,48.10934585493989,207649 -131.83615042308102,47.85807491305261,208136 -130.93698967840027,47.59905746081442,208641 -130.04735328801246,47.33244392442259,209165 -129.1673256066589,47.05838543257336,209707 -128.29697474841205,46.77703353349599,210267 -127.43635320901267,46.48853992661698,210846 -126.58549851412533,46.19305620937884,211442 -125.7444338876886,45.89073363948785,212057 -124.91316893448317,45.581722912603354,212690 -124.09170033125449,45.26617395527003,213341 -123.2800125212129,44.94423573278463,214010 -122.47807840889953,44.6160560722852,214697 -121.68586005120251,44.28178150071517,215402 -120.90330933937892,43.94155709663234,216125 -120.1303686702495,43.595526355930424,216865 -119.36697160388246,43.24383107104531,217623 -118.61304350449933,42.88661122272607,218399 -117.86850216323035,42.52400488408611,219192 -117.13325840117318,42.15614813643418,220003 -116.40721665117246,41.78317499620252,220831 -115.69027551681313,41.40521735214257,221677 -114.98232830771698,41.02240491208896,222540 -114.28326355197304,40.63486515942263,223420 -113.59296548415998,40.242723318031025,224317 -112.91131450869445,39.84610232508029,225231 -112.23818763924668,39.44512281141543,226162 -111.57345891402728,39.03990308882602,227110 -110.91699978732814,38.63055914367394,228075 -110.2686794977438,38.21720463636138,229056 -109.62836541358939,37.799950906133326,230055 -108.99592335618225,37.37890698077771,231069 -108.37121790160855,36.954179590739095,232100 -107.75411266146405,36.525873187050166,233148 -107.14447054391641,36.094089963066004,234211 -106.54215399545934,35.65892987934133,235291 -105.94702522420891,35.22049069130784,236387 -105.35894640573984,34.778867979536905,237498 -104.77777987219862,34.334155182211816,238626 -104.20338828549619,33.886443629494536,239769 -103.63563479544523,33.4358225795487,240927 -103.07438318369314,32.982379256001884,242102 -102.51949799417082,32.52619888655932,243291 -101.97084465088123,32.0673647425956,244496 -101.42828956382382,31.60595817956797,245716 -100.89170022367313,31.142058677983865,246951 -100.36094528598127,30.675743884813436,248200 -99.83589464562282,30.20708965524112,249465 -99.31641950206064,29.73617009456383,250744 -98.80239241606868,29.263057600130352,252038 -98.29368735853375,28.787822903243605,253345 -97.79017975184193,28.31053511087815,254668 -97.29174650443932,27.831261747179525,256004 -96.79826603904014,27.350068794640023,257354 -96.30961831500332,26.86702073492635,258718 -95.82568484520999,26.382180589186053,260096 -95.34634870805681,25.89560995796657,261487 -94.87149455476718,25.40736906051069,262891 -94.40100861251375,24.91751677350592,264309 -93.93477868368589,24.426110669240337,265740 -93.47269414161777,23.93320705312525,267183 -93.01464592307374,23.438861000551707,268640 -92.56052651777449,22.943126393058552,270108 -92.11022995527097,22.44605595384222,271590 -91.66365178938774,21.94770128256995,273083 -91.22068908044828,21.448112889469012,274589 -90.7812403755405,20.947340228736746,276107 -90.3452056869882,20.445431731234407,277636 -89.9124864692172,19.94243483647085,279177 -89.48298559420323,19.43839602389954,280729 -89.05660732563422,18.933360843506073,282293 -88.63325729197547,18.427373945745266,283867 -88.21284245850003,17.92047911075302,285452 -87.79527109846393,17.412719276909613,287048 -87.38045276355837,16.90413656879179,288655 -86.96829825364404,16.394772324406603,290272 -86.55871958596508,15.884667121845894,291899 -86.15162996387797,15.373860805313583,293535 -85.74694374519112,14.862392510563204,295182 -85.34457641017856,14.350300689750005,296838 -84.94444452932541,13.83762313570596,298503 -84.54646573089173,13.324397005688882,300178 -84.15055866827333,12.81065884452709,301861 -83.75664298733703,12.296444607343686,303553 -83.36463929364353,11.781789681711382,305254 -82.9744691196749,11.266728909356374,306962 -82.586054892081,10.751296607403987,308679 -82.19931989894106,10.235526589138624,310404 -81.81418825710801,9.71945218434897,312137 -81.43058487966991,9.203106259292028,313876 -81.04843544349647,8.686521236223083,315624 -80.66766635691452,8.169729112544154,317378 -80.28820472755258,7.652761479622439,319139 -79.909978330314,7.1356495412238345,320906 -79.53291557555251,6.6184241316651375,322680 -79.15694547738322,6.1011157335982595,324459 -78.78199762222565,5.583754495566776,326245 -78.40800213749016,5.066370249222305,328036 -78.03488966047745,4.548992526307806,329833 -77.66259130746835,4.0316505753893015,331635 -77.29103864301094,3.5143733783604434,333442 -76.92016364939933,2.997189666727207,335253 -76.54989869634929,2.480127937696861,337069 -76.18017651086642,1.9632164700826742,338890 -75.81093014730297,1.4464833400375123,340714 -75.44209295760237,0.9299564366337368,342542 -75.07359856172772,0.4136634773038638,344373 -74.70538081827004,-0.10236797684374087,346208 -74.33737379523615,-0.6181105058145062,348046 -73.96951174100401,-1.1335368156191619,349886 -73.60172905544721,-1.6486197232443367,351729 -73.23396026122187,-2.1633321416913667,353574 -72.8661399752118,-2.6776470650689945,355422 -72.49820288012826,-3.191537553725762,357271 -72.13008369625913,-3.704976719409012,359121 -71.76171715336467,-4.217937710436442,360973 -71.39303796271493,-4.730393696867907,362826 -71.02398078926561,-5.242317855665304,364680 -70.65448022397213,-5.753683355823368,366534 -70.28447075623806,-6.264463343460875,368388 -69.91388674649484,-6.774630926861976,370242 -69.5426623989162,-7.284159161448881,372096 -69.1707317342625,-7.7930210346804705,373950 -68.79802856286001,-8.301189450857976,375803 -68.42448645771479,-8.80863721582933,377654 -68.05003872776678,-9.315337021575996,379505 -67.67461839128532,-9.821261430674232,381353 -67.29815814941087,-10.326382860620157,383200 -66.92059035985697,-10.830673567996364,385045 -66.54184701077163,-11.33410563248162,386888 -66.16185969477552,-11.836650940681483,388728 -65.78055958318485,-12.338281169774191,390565 -65.39787740043234,-12.838967770960071,392399 -65.01374339870507,-13.338681952700034,394229 -64.62808733281655,-13.837394663732496,396056 -64.2408384353299,-14.335076575862004,397879 -63.85192539195791,-14.831698066505643,399698 -63.46127631726496,-15.327229200986611,401512 -63.06881873070408,-15.821639714559051,403322 -62.674479533006114,-16.314898994172097,405127 -62.27818498296392,-16.806976059952746,406926 -61.87986067465599,-17.297839546390527,408720 -61.47943151513994,-17.787457683228812,410509 -61.076821702670856,-18.275798276042895,412291 -60.671954705484794,-18.7628286865083,414067 -60.26475324120671,-19.248515812345463,415837 -59.85513925694314,-19.73282606693208,417599 -59.4430339101173,-20.21572535858414,419355 -59.02835755011909,-20.697179069496084,421104 -58.61102970084512,-21.17715203433396,422845 -58.19096904420194,-21.655608518487064,424578 -57.76809340466912,-22.13251219596229,426303 -57.342319735005496,-22.60782612693143,428020 -56.91356410320246,-23.08151273492538,429728 -56.481741680792275,-23.5535337836757,431428 -56.046766732618046,-24.023850353613373,433118 -55.60855260819751,-24.492422818018824,434799 -55.16701173480439,-24.959210818835366,436471 -54.722055612409015,-25.424173242151426,438133 -54.273594810624836,-25.88726819336259,439784 -53.82153896781946,-26.348452972024482,441426 -53.36579679255794,-26.80768404640972,443057 -52.90627606755497,-27.264917027787487,444677 -52.44288365632552,-27.72010664444354,446286 -51.97552551273292,-28.173206715463607,447884 -51.504106693644275,-28.624170124305895,449471 -51.02853137491652,-29.072948792191653,451045 -50.54870287094695,-29.51949365134596,452608 -50.064523658034545,-29.96375461812582,454159 -49.57589540181063,-30.40568056607673,455697 -49.0827189890105,-30.845219298962437,457222 -48.58489456386954,-31.282317523818485,458735 -48.08232156944039,-31.716920824085186,460235 -47.574898794140445,-32.148973632880185,461721 -47.06252442385096,-32.5784192064779,463194 -46.54509609990086,-33.005199598068295,464653 -46.02251098328059,-33.42925563187509,466097 -45.49466582544255,-33.85052687771869,467528 -44.96145704605466,-34.268951626117776,468945 -44.422780818082565,-34.68446686403077,470346 -43.878533160585455,-35.0970082513465,471733 -43.32861003961751,-35.50651009824035,473105 -42.772907477631485,-35.91290534352294,474461 -42.21132167178448,-36.31612553411645,475803 -41.643749121549305,-36.71610080580222,477128 -41.0700867660321,-37.11275986539401,478438 -40.490232131394144,-37.50602997450011,479731 -39.90408348876754,-37.8958369350494,481008 -39.31154002304566,-38.282105076764175,482269 -38.71250201291492,-38.664757246773945,483514 -38.106871022474046,-39.043714801575895,484741 -37.49455010476476,-39.41889760155591,485951 -36.875444017508684,-39.790224008296114,487145 -36.24945945131003,-40.15761088490376,488320 -35.61650527054445,-40.52097359960565,489479 -34.97649276710382,-40.88022603286289,490619 -34.32933592711503,-41.23528058826793,491742 -33.67495171068642,-41.586048207493384,492847 -33.013260344664765,-41.93243838957111,493933 -32.344185628307265,-42.27435921478326,495001 -31.667655251685545,-42.61171737345241,496050 -30.98360112653842,-42.944418199921905,497081 -30.29195972918809,-43.27236571201643,498093 -29.592672455013922,-43.59546265627449,499086 -28.885685983854767,-43.91361055923973,500060 -28.170952655575263,-44.2267097850929,501014 -27.448430854888137,-44.534659599898674,501949 -26.71808540436948,-44.83735824273019,502864 -25.97988796444499,-45.134703003919036,503760 -25.23381743895727,-45.42659031066191,504636 -24.479860384750243,-45.71291582019166,505491 -23.71801142352568,-45.993574520697095,506327 -22.948273654048144,-46.268460840144826,507142 -22.170659062589415,-46.53746876312317,507937 -21.38518892932016,-46.80049195578949,508711 -20.591894228180358,-47.05742389895975,509465 -19.79081601758365,-47.30815802933202,510198 -18.982005819147346,-47.55258788878357,510910 -18.16552598148747,-47.79060728162525,511602 -17.341450025981118,-48.022110439637004,512272 -16.509862971280413,-48.246992194642964,512921 -15.670861633266238,-48.465148158319174,513549 -14.824554897060196,-48.676474908853436,514155 -13.971063957676106,-48.880870184006525,514740 -13.110522525885328,-49.07823308004552,515303 -12.243076995901685,-49.2684642559467,515845 -11.368886571563115,-49.45146614218759,516365 -10.488123347801942,-49.62714315337113,516864 -9.600972344356173,-49.79540190385254,517340 -8.707631488879413,-49.95615142546559,517795 -7.808311546861287,-50.1093033863798,518227 -6.903235996072226,-50.25477231005539,518638 -5.992640843595687,-50.392475793208334,519026 -5.076774383905225,-50.52233472164723,519392 -4.15589689688113,-50.644273482804785,519736 -3.2302802851377974,-50.75822017375568,520058 -2.3002076505433315,-50.86410680349197,520357 -1.3659728103524584,-50.961869488219996,520634 -0.4278797539350676,-51.051448638445635,520889 0.5137579583413961,-51.13278913663284,521121 1.4586178519353883,-51.20584050424831,521330 2.4063692479406127,-51.270557057052436,521517 3.356674022593374,-51.32689804754939,521682 4.309187412643115,-51.374827793583364,521824 5.263558862234892,-51.414315792148166,521943 6.219432906475562,-51.44533681757356,522039 7.176450086426705,-51.467871003356784,522114 8.134247889894699,-51.48190390702296,522165 9.092461712078693,-51.48742655752245,522194 10.05072582989717,-51.48443548480163,522200 11.008674383646454,-51.4729327313215,522183 11.965942359555571,-51.45292584543381,522144 12.922166566790265,-51.42442785666674,522082 13.876986602527104,-51.38745723310822,521998 14.830045798864486,-51.342037821214376,521891 15.780992145557311,-51.288198768499186,521761 16.729479182853236,-51.22597442968907,521609 17.675166859064145,-51.15540425704373,521434 18.61772234792016,-51.0765326756512,521236 19.556820821218537,-50.989408944605835,521016 20.49214617278534,-50.894087005061266,520774 21.423391690308037,-50.790625316225615,520509 22.350260672159482,-50.679086680427744,520222 23.272466986911564,-50.55953805842832,519913 24.189735573818933,-50.43205037618585,519581 25.101802883131615,-50.29669832430636,519227 26.00841725566166,-50.15356015141425,518851 26.909339241574788,-50.00271745267591,518452 27.804341858897544,-49.84425495469111,518032 28.69321079271663,-49.67826029793983,517589 29.57574453649573,-49.504823817933165,517125 30.451754477341932,-49.32403832617217,516639 31.321064927415517,-49.13599889196221,516131 32.18351310399219,-48.94080262607086,515601 33.03894906095381,-48.738548467149926,515049 33.8872355747034,-48.529336971772835,514476 34.72824798767273,-48.313270108863414,513882 35.56187401271811,-48.090451059217976,513266 36.38801350178271,-47.86098402074512,512629 37.2065781822453,-47.6249740199719,511971 38.01749136438044,-47.3825267302891,511291 38.82068762332535,-47.13374829733453,510591 39.61611245888758,-46.87874517184096,509870 40.403721936437506,-46.617623950209065,509128 41.18348231201824,-46.35049122299748,508365 41.955369644674064,-46.07745343146334,507582 42.71936939884911,-45.79861673222772,506779 43.47547603954693,-45.51408687008876,505955 44.223692622769676,-45.22396905895489,505111 44.96403038357804,-44.92836787082971,504247 45.696508323932655,-44.627387132736615,503363 46.42115280229142,-44.32112983143962,502459 47.137997126757746,-44.009698025783685,501536 47.84708115339262,-43.69319276645284,500593 48.548450891128404,-43.37171402292057,499631 49.24215811455322,-43.04536061734933,498649 49.92825998567152,-42.71423016517905,497649 50.60681868559127,-42.378419022133755,496629 51.27790105694055,-42.03802223736672,495591 51.94157825768034,-41.693133512457045,494535 52.59792542685197,-41.34384516596805,493460 53.247021362677735,-40.99024810327549,492366 53.88894821332397,-40.6324317913757,491255 54.52379118053836,-40.27048423838456,490125 55.151638236278025,-39.90449197744402,488978 55.77257985236932,-39.53454005475642,487813 56.386708743161506,-39.160712021474694,486631 56.99411962107593,-38.783089929184015,485432 57.59490896489221,-38.40175432871855,484215 58.189174800566526,-38.01678427206512,482982 58.77701649433101,-37.628257317117395,481732 59.35853455778965,-37.23624953505117,480465 59.93383046469413,-36.84083552010401,479183 60.50300647905864,-36.44208840155101,477884 61.0661654942525,-36.040079857679586,476569 61.62341088269337,-35.63488013157723,475238 62.17484635575344,-35.22655804855452,473892 62.720575833483274,-34.81518103503712,472531 63.2607033237514,-34.40081513877054,471155 63.795332810398186,-33.98352505019052,469763 64.32456815000215,-33.563374124821586,468357 64.8485129768618,-33.14042440657469,466937 65.36727061579835,-32.71473665182454,465502 65.88094400239281,-32.28637035415615,464053 66.38963561027954,-31.855383769675864,462590 66.89344738512696,-31.421833942791853,461114 67.39248068494534,-30.98577673237659,459624 67.88683622637386,-30.547266838229255,458121 68.37661403661059,-30.106357827763585,456606 68.86191341065988,-29.663102162853097,455077 69.34283287358538,-29.217551226770627,453536 69.81947014746764,-28.76975535116682,451983 70.29192212278032,-28.319763843033826,450418 70.76028483390922,-27.86762501160943,448840 71.22465343855221,-27.41338619517827,447252 71.68512220075057,-26.95709378773276,445652 72.14178447731395,-26.498793265460268,444041 72.59473270741289,-26.038529213026404,442419 73.04405840512568,-25.576345349627985,440786 73.48985215473743,-25.112284554791795,439143 73.93220360859847,-24.646388893900255,437490 74.37120148736315,-24.17869964342555,435827 74.80693358243755,-23.709257315857826,434155 75.23948676047637,-23.238101684314632,432473 75.6689469697771,-22.765271806823062,430782 76.09539924843254,-22.290806050262734,429082 76.51892773410562,-21.81474211396796,427373 76.93961567530486,-21.337117052980215,425656 77.3575454440389,-20.857967300955476,423931 77.7727985497523,-20.377328692711046,422198 78.18545565442744,-19.89523648642854,420457 78.59559658877076,-19.411725385498976,418709 79.00330036938595,-18.926829560022863,416953 79.4086452168563,-18.44058266796481,415191 79.81170857466275,-17.953017875963337,413422 80.21256712886226,-17.464167879807267,411647 80.61129682846641,-16.974064924578816,409866 81.00797290645897,-16.482740824471236,408079 81.40266990139328,-15.990226982292972,406286 81.79546167952485,-15.49655440865893,404488 82.18642145743048,-15.001753740878499,402685 82.57562182506898,-14.505855261553503,400877 82.96313476924938,-14.008888916886947,399065 83.34903169746096,-13.510884334727459,397248 83.73338346204648,-13.01187084233976,395427 84.11626038468756,-12.511877483914986,393603 84.49773228116712,-12.010933037842266,391775 84.87786848638915,-11.509066033747079,389943 85.25673787963837,-11.006304769303155,388109 85.6344089100586,-10.50267732683181,386272 86.01094962233326,-9.998211589700501,384432 86.38642768255293,-9.49293525853299,382590 86.76091040426061,-8.98687586723827,380746 87.13446477466209,-8.480060798872785,378901 87.50715748099242,-7.972517301348264,377054 87.8790549370324,-7.464272502994147,375206 88.25022330976576,-6.955353427992617,373357 88.62072854617594,-6.445787011692657,371507 88.99063640018058,-5.935600115813339,369657 89.36001245969453,-5.424819543558643,367806 89.72892217382741,-4.913472054645883,365956 90.09743088020961,-4.401584380268095,364106 90.46560383245259,-3.8891832379961495,362257 90.8335062277398,-3.3762953466398398,360408 91.20120323455417,-2.8629474410756037,358561 91.56876002054247,-2.3491662870562235,356715 91.93624178051789,-1.834978696019394,354870 92.30371376460923,-1.3204115398999683,353027 92.67124130655617,-0.8054917659666143,351187 93.03888985215734,-0.29024641169226717,349349 93.4067249878735,0.2252973803253598,347513 93.77481246959205,0.7411123473813045,345680 94.14321825155656,1.2571710916044183,343851 94.51200851546474,1.7734460648056098,342024 94.8812496997422,2.2899095532242475,340202 95.25100852899514,2.8065336621556627,338383 95.6213520436444,3.3232903004438503,336568 95.99234762974325,3.8401511648226463,334757 96.36406304898728,4.357087724097998,332951 96.736566468913,4.874071203147524,331149 97.10992649329408,5.39107256673244,329353 97.48421219273067,5.908062503097497,327562 97.8594931354311,6.4250114073433435,325776 98.2358394181943,6.941889364566266,323996 98.61332169758089,7.45866613273644,322222 98.99201122127124,7.975311125300056,320454 99.37197985960886,8.491793393492028,318692 99.75330013733706,9.00808160836328,316937 100.13604526548922,9.524144042460438,315189 100.5202891734611,10.039948551194174,313447 100.90610654121234,10.555462553822148,311713 101.29357283162604,11.070653014088093,309987 101.68276432297394,11.58548642045049,308268 102.0737581414795,12.099928765898792,306557 102.46663229400042,12.613945527397652,304854 102.86146570072067,13.127501644828806,303159 103.25833822787949,13.640561499487713,301473 103.65733072052193,14.153088892139294,299795 104.05852503518084,14.665047020544538,298127 104.46200407248564,15.176398456488853,296467 104.86785180966817,15.68710512231311,294817 105.27615333282324,16.19712826681583,293177 105.68699486901235,16.70642844069195,291546 106.10046381801504,17.21496547132377,289924 106.51664878375519,17.7226984370285,288313 106.93563960527686,18.22958564068375,286713 107.35752738718506,18.735584582715358,285122 107.78240452949727,19.2406519334773,283543 108.21036475672828,19.744743504917505,281974 108.64150314624258,20.24781422168707,280416 109.07591615559602,20.74981809149139,278869 109.5137016488302,21.250708174783085,277334 109.95495892157663,21.750436553784613,275810 110.39978872479232,22.248954300801554,274298 110.84829328695903,22.74621144582006,272798 111.30057633460208,23.242156943423,271310 111.75674311089497,23.73673863897829,269834 112.21690039218763,24.229903234151717,268370 112.68115650218117,24.721596251690507,266919 113.1496213235589,25.211761999541693,265480 113.62240630679408,25.700343534292788,264055 114.09962447582483,26.187282623918904,262642 114.58139043035253,26.672519709912734,261243 115.06782034442634,27.155993868801474,259856 115.55903196096808,27.637642773075346,258483 116.05514458185245,28.117402651542605,257124 116.55627905316146,28.59520824916016,255779 117.06255774529417,29.07099278647762,254447 117.57410452729317,29.544687918558292,253129 118.09104473515325,30.01622369366035,251826 118.61350513344581,30.4855285115846,250536 119.14161386981893,30.952529081846652,249261 119.6755004217987,31.41715038174048,248001 120.21529553532898,31.879315614408736,246755 120.76113115443839,32.33894616702979,245524 121.31314034139803,32.795961569244234,244308 121.87145718672257,33.25027945197532,243107 122.4362167082722,33.70181550675374,241921 123.00755473876418,34.15048344573931,240750 123.58560780103456,34.59619496269019,239595 124.17051297012993,35.03885969495768,238455 124.76240772154216,35.478385186808694,237331 125.36142976477386,35.91467685430619,236222 125.96771686136739,36.34763795197204,235129 126.5814066265951,36.7771695415312,234052 127.20263631402746,37.20317046307409,232991 127.83154258207973,37.62553730890897,231946 128.46826124163988,38.04416440040513,230918 129.1129269841717,38.4589437683317,229905 129.76567308942597,38.86976513702096,228909 130.42663111168298,39.27651591256839,227930 131.09593054441797,39.679081175889486,226967 131.77369846240714,40.077343680869596,226020 132.460059140731,40.4711838581103,225091 133.1551336502285,40.8604798248002,224178 133.8590394290209,41.245107401233014,223282 134.57188982986747,41.624940134526405,222403</coordinates>
            </LineString>
        </Placemark>
    </Document>
</kml>
