<?xml version="1.0" encoding="UTF-8"?>
<kml xmlns="http://www.opengis.net/kml/2.2" xmlns:gx="http://www.google.com/kml/ext/2.2">
    <Document id="1">
        <Style id="4">
            <LineStyle id="5">
                <color>ffffffff</color>
                <colorMode>normal</colorMode>
                <width>4</width>
            </LineStyle>
        </Style>
        <Placemark id="3">
            <name>Satellite_trajectory</name>
            <description>Time: 0.0 - 1000.0 s</description>
            <styleUrl>#4</styleUrl>
            <LineString id="2">
                <extrude>1</extrude>
                <altitudeMode>absolute</altitudeMode>
                <coordinates>141.5,42.5,150000 142.38550185409886,42.496256028292976,149996 143.27077561291674,42.48502608910524,149986 144.15560257881103,42.46631588580701,149969 145.03976462031932,42.44013477340457,149946 145.92304520393836,42.40649572510832,149916 146.80522931986602,42.36541531588967,149879 147.6861042673422,42.316913672119,149836 148.56545984775346,42.26101443355448,149785 149.44308880374155,42.197744699157326,149728 150.31878733065113,42.127134955825085,149665 151.19235514632805,42.0492190334987,149594 152.06359628460712,41.96403399284865,149517 152.93231886639398,41.87162009522709,149433 153.79833605133874,41.77202065252809,149343 154.6614656590314,41.66528200613574,149245 155.52153109366785,41.55145335463692,149141 156.3783610127151,41.43058672248579,149030 157.23179001188032,41.302736795121795,148913 158.08165854194863,41.167960847640494,148789 158.9278131777301,41.02631862137398,148658 159.7701069038874,40.87787218603544,148521 160.6083989245361,40.72268587919071,148377 161.44255526449606,40.56082609952963,148226 162.2724482748034,40.392361295805436,148069 163.09795730685298,40.217361728984116,147906 163.9189682246538,40.035899458524945,147735 164.7353738132181,39.84804814283285,147559 165.54707362686875,39.653882951233065,147376 166.35397388252164,39.453480469697716,147186 167.1559877578606,39.24691850179067,146990 167.9530348560042,39.03427607494162,146788 168.74504167635013,38.81563318900209,146579 169.5319410866594,38.59107082239058,146365 170.31367247475958,38.36067075819144,146143 171.0901816712625,38.124515466146555,145916 171.86142054366425,37.88268808705899,145683 172.62734731449407,37.63527219541896,145443 173.38792598347368,37.38235183910901,145197 174.14312644427991,37.12401136414704,144946 174.89292434660845,36.86033531552636,144688 175.6373006586137,36.591408448142104,144424 176.37624189405918,36.31731550600856,144155 177.10973963666478,36.03814125131653,143880 177.83779041593567,35.75397037443156,143599 178.56039574613132,35.464887338043766,143312 179.27756161719512,35.17097643890466,143019 179.98929852760244,34.87232166160939,142721 -179.30437864845683,34.56900659582073,142417 -178.60345109219935,34.26111448711999,142108 -177.90789599409536,33.948728089186275,141793 -177.21768674126645,33.63192961571348,141473 -176.53279329012943,33.310800785299854,141147 -175.85318215991018,32.9854226981712,140817 -175.1788165836135,32.655875785307614,140481 -174.50965684749139,32.32223985631034,140139 -173.84566036146003,31.98459402310224,139793 -173.18678173443536,31.64301662667952,139442 -172.53297305363506,31.297585272430887,139085 -171.88418405710058,30.948376818798064,138724 -171.24036217925064,30.595467303612086,138358 -170.60145270510407,30.238931929614402,137987 -169.96739898787638,29.878845091717565,137611 -169.33814257171557,29.515280360460864,137230 -168.7136232641348,29.148310437979404,136845 -168.09377926528506,28.778007151269737,136455 -167.47854732328616,28.404441466888848,136061 -166.86786286202192,28.02768349385869,135662 -166.26166006967426,27.647802470101084,135259 -165.65987198994142,27.264866751529343,134852 -165.06243062848182,26.87894381662833,134440 -164.46926705597076,26.490100273684085,134024 -163.8803115066118,26.098401868411944,133604 -163.29549346156517,25.703913489082932,133179 -162.71474172858265,25.306699169500583,132751 -162.13798451750094,24.90682209702724,132319 -161.56514951418447,24.50434461994727,131882 -160.99616395266145,24.099328260447315,131442 -160.43095468034687,23.69183372440519,130998 -159.86944822095185,23.281920914683916,130550 -159.31157083272032,22.869648943725196,130099 -158.7572485644362,22.455076148459163,129643 -158.20640730685102,22.038260104862967,129184 -157.65897284143682,21.619257644098244,128722 -157.1148708843854,21.198124867397585,128255 -156.57402712949877,20.774917164341765,127785 -156.03636728710518,20.34968922881869,127312 -155.50181711977783,19.92249507816771,126835 -154.97030248354025,19.49338807558061,126355 -154.44174936556956,19.062420956708106,125871 -153.91608390755857,18.629645843410568,125384 -153.39323242051623,18.195114254581966,124893 -152.87312141973527,17.75887713556515,124399 -152.3556776901775,17.32098491405731,123902 -151.84082825661153,16.881487480765436,123401 -151.32850036863485,16.440434181090687,122897 -150.81862168048454,15.997873976385785,122389 -150.31112022391815,15.553855433317299,121878 -149.80592444868765,15.108426771869613,121364 -149.30296321215732,14.66163586988375,120846 -148.80216580937096,14.21353030465564,120324</coordinates>
            </LineString>
        </Placemark>
    </Document>
</kml>
